{
  "type": "FeatureCollection",
  "features": [
    {
      "type": "Feature",
      "properties": {
        "norad_id": 47116,
        "name": "COSMOS 2251 DEB",
        "group": "cosmos-2251-debris",
        "lat": -21.63561024597458,
        "lon": 86.39999383200282,
        "alt_km": 593.7032678733676,
        "timestamp": "2025-12-03T06:58:43.640716+00:00",
        "meta_object_name": "COSMOS 2251 DEB",
        "meta_object_id": "1993-036BYJ",
        "meta_epoch": "2025-11-28T02:40:22.126944",
        "meta_mean_motion": 14.97052334,
        "meta_eccentricity": 0.00224176,
        "meta_inclination": 74.0247,
        "meta_ra_of_asc_node": 270.3586,
        "meta_arg_of_pericenter": 5.4926,
        "meta_mean_anomaly": 12.2387,
        "meta_ephemeris_type": 0,
        "meta_classification_type": "U",
        "meta_norad_cat_id": 47116,
        "meta_element_set_no": 999,
        "meta_rev_at_epoch": 59292,
        "meta_bstar": 0.0024991708,
        "meta_mean_motion_dot": 0.00029033,
        "meta_mean_motion_ddot": 0,
        "tle_line1": "1 47116U 93036BYJ 25332.11136721  .00029033  00000+0  24992-2 0  9991",
        "tle_line2": "2 47116  74.0247 270.3586 0022417   5.4926  12.2387 14.97052334592926"
      },
      "geometry": {
        "type": "Point",
        "coordinates": [
          86.39999383200282,
          -21.63561024597458
        ]
      }
    },
    {
      "type": "Feature",
      "properties": {
        "norad_id": 53093,
        "name": "COSMOS 2251 DEB",
        "group": "cosmos-2251-debris",
        "lat": 47.09344468216342,
        "lon": 121.03133840989857,
        "alt_km": 748.4715830680807,
        "timestamp": "2025-12-03T06:58:43.640726+00:00",
        "meta_object_name": "COSMOS 2251 DEB",
        "meta_object_id": "1993-036BYP",
        "meta_epoch": "2025-12-02T08:43:46.529472",
        "meta_mean_motion": 14.41780051,
        "meta_eccentricity": 0.00186094,
        "meta_inclination": 74.0358,
        "meta_ra_of_asc_node": 320.6859,
        "meta_arg_of_pericenter": 40.4715,
        "meta_mean_anomaly": 319.7821,
        "meta_ephemeris_type": 0,
        "meta_classification_type": "U",
        "meta_norad_cat_id": 53093,
        "meta_element_set_no": 999,
        "meta_rev_at_epoch": 17576,
        "meta_bstar": 0.0011428944,
        "meta_mean_motion_dot": 3.716e-05,
        "meta_mean_motion_ddot": 0,
        "tle_line1": "1 53093U 93036BYP 25336.36373298  .00003716  00000+0  11429-2 0  9996",
        "tle_line2": "2 53093  74.0358 320.6859 0018609  40.4715 319.7821 14.41780051175765"
      },
      "geometry": {
        "type": "Point",
        "coordinates": [
          121.03133840989857,
          47.09344468216342
        ]
      }
    }
  ]
}